{
  "type": "FeatureCollection",
  "features": [
    {
      "type": "Feature",
      "properties": {
        "norad_id": 58647,
        "name": "TIANMU-1 13",
        "group": "weather",
        "lat": -44.86310738379681,
        "lon": 10.403293626844656,
        "alt_km": 495.64059066519894,
        "timestamp": "2025-12-09T07:41:32.845294+00:00",
        "meta_object_name": "TIANMU-1 13",
        "meta_object_id": "2023-205C",
        "meta_epoch": "2025-12-09T00:00:50.865408",
        "meta_mean_motion": 15.24451341,
        "meta_eccentricity": 0.00060775,
        "meta_inclination": 97.3622,
        "meta_ra_of_asc_node": 2.6956,
        "meta_arg_of_pericenter": 284.378,
        "meta_mean_anomaly": 75.6783,
        "meta_ephemeris_type": 0,
        "meta_classification_type": "U",
        "meta_norad_cat_id": 58647,
        "meta_element_set_no": 999,
        "meta_rev_at_epoch": 10850,
        "meta_bstar": 0.00033434683,
        "meta_mean_motion_dot": 8.143e-05,
        "meta_mean_motion_ddot": 0,
        "tle_line1": "1 58647U 23205C   25343.00058872  .00008143  00000+0  33435-3 0  9995",
        "tle_line2": "2 58647  97.3622   2.6956 0006077 284.3780  75.6783 15.24451341108501"
      },
      "geometry": {
        "type": "Point",
        "coordinates": [
          10.403293626844656,
          -44.86310738379681
        ]
      }
    },
    {
      "type": "Feature",
      "properties": {
        "norad_id": 58648,
        "name": "TIANMU-1 14",
        "group": "weather",
        "lat": 45.46922547402939,
        "lon": -5.183696824862605,
        "alt_km": 490.81777088002127,
        "timestamp": "2025-12-09T07:41:32.845315+00:00",
        "meta_object_name": "TIANMU-1 14",
        "meta_object_id": "2023-205D",
        "meta_epoch": "2025-12-08T23:36:52.982784",
        "meta_mean_motion": 15.24435059,
        "meta_eccentricity": 0.00069408,
        "meta_inclination": 97.3555,
        "meta_ra_of_asc_node": 2.0313,
        "meta_arg_of_pericenter": 289.5524,
        "meta_mean_anomaly": 70.4964,
        "meta_ephemeris_type": 0,
        "meta_classification_type": "U",
        "meta_norad_cat_id": 58648,
        "meta_element_set_no": 999,
        "meta_rev_at_epoch": 10850,
        "meta_bstar": 0.00031653901,
        "meta_mean_motion_dot": 7.702e-05,
        "meta_mean_motion_ddot": 0,
        "tle_line1": "1 58648U 23205D   25342.98394656  .00007702  00000+0  31654-3 0  9996",
        "tle_line2": "2 58648  97.3555   2.0313 0006940 289.5524  70.4964 15.24435059108502"
      },
      "geometry": {
        "type": "Point",
        "coordinates": [
          -5.183696824862605,
          45.46922547402939
        ]
      }
    },
    {
      "type": "Feature",
      "properties": {
        "norad_id": 58660,
        "name": "TIANMU-1 19",
        "group": "weather",
        "lat": -77.5466721959408,
        "lon": -121.91040496589379,
        "alt_km": 487.14898315804294,
        "timestamp": "2025-12-09T07:41:32.845332+00:00",
        "meta_object_name": "TIANMU-1 19",
        "meta_object_id": "2023-208A",
        "meta_epoch": "2025-12-08T22:41:52.265184",
        "meta_mean_motion": 15.27740182,
        "meta_eccentricity": 0.00040501,
        "meta_inclination": 97.4391,
        "meta_ra_of_asc_node": 93.9908,
        "meta_arg_of_pericenter": 270.1072,
        "meta_mean_anomaly": 89.9703,
        "meta_ephemeris_type": 0,
        "meta_classification_type": "U",
        "meta_norad_cat_id": 58660,
        "meta_element_set_no": 999,
        "meta_rev_at_epoch": 10824,
        "meta_bstar": 0.00042708785,
        "meta_mean_motion_dot": 0.00011509,
        "meta_mean_motion_ddot": 0,
        "tle_line1": "1 58660U 23208A   25342.94574381  .00011509  00000+0  42709-3 0  9997",
        "tle_line2": "2 58660  97.4391  93.9908 0004050 270.1072  89.9703 15.27740182108244"
      },
      "geometry": {
        "type": "Point",
        "coordinates": [
          -121.91040496589379,
          -77.5466721959408
        ]
      }
    },
    {
      "type": "Feature",
      "properties": {
        "norad_id": 58661,
        "name": "TIANMU-1 20",
        "group": "weather",
        "lat": -40.07235423515414,
        "lon": 101.1143382435834,
        "alt_km": 482.1865074521902,
        "timestamp": "2025-12-09T07:41:32.845348+00:00",
        "meta_object_name": "TIANMU-1 20",
        "meta_object_id": "2023-208B",
        "meta_epoch": "2025-12-08T22:26:40.911936",
        "meta_mean_motion": 15.28931327,
        "meta_eccentricity": 0.00063415,
        "meta_inclination": 97.4329,
        "meta_ra_of_asc_node": 94.4241,
        "meta_arg_of_pericenter": 282.0132,
        "meta_mean_anomaly": 78.0396,
        "meta_ephemeris_type": 0,
        "meta_classification_type": "U",
        "meta_norad_cat_id": 58661,
        "meta_element_set_no": 999,
        "meta_rev_at_epoch": 10831,
        "meta_bstar": 0.00041548376,
        "meta_mean_motion_dot": 0.00011613,
        "meta_mean_motion_ddot": 0,
        "tle_line1": "1 58661U 23208B   25342.93519574  .00011613  00000+0  41548-3 0  9996",
        "tle_line2": "2 58661  97.4329  94.4241 0006341 282.0132  78.0396 15.28931327108315"
      },
      "geometry": {
        "type": "Point",
        "coordinates": [
          101.1143382435834,
          -40.07235423515414
        ]
      }
    },
    {
      "type": "Feature",
      "properties": {
        "norad_id": 58662,
        "name": "TIANMU-1 21",
        "group": "weather",
        "lat": -65.41420378012627,
        "lon": 113.2923675129841,
        "alt_km": 474.9477892341192,
        "timestamp": "2025-12-09T07:41:32.845364+00:00",
        "meta_object_name": "TIANMU-1 21",
        "meta_object_id": "2023-208C",
        "meta_epoch": "2025-12-08T22:34:23.476800",
        "meta_mean_motion": 15.31423162,
        "meta_eccentricity": 0.0005914,
        "meta_inclination": 97.4377,
        "meta_ra_of_asc_node": 96.3209,
        "meta_arg_of_pericenter": 276.3841,
        "meta_mean_anomaly": 83.6726,
        "meta_ephemeris_type": 0,
        "meta_classification_type": "U",
        "meta_norad_cat_id": 58662,
        "meta_element_set_no": 999,
        "meta_rev_at_epoch": 10841,
        "meta_bstar": 0.00045174542,
        "meta_mean_motion_dot": 0.00013647,
        "meta_mean_motion_ddot": 0,
        "tle_line1": "1 58662U 23208C   25342.94054950  .00013647  00000+0  45175-3 0  9999",
        "tle_line2": "2 58662  97.4377  96.3209 0005914 276.3841  83.6726 15.31423162108419"
      },
      "geometry": {
        "type": "Point",
        "coordinates": [
          113.2923675129841,
          -65.41420378012627
        ]
      }
    },
    {
      "type": "Feature",
      "properties": {
        "norad_id": 58663,
        "name": "TIANMU-1 22",
        "group": "weather",
        "lat": -80.54059021413977,
        "lon": -137.21679968864242,
        "alt_km": 489.1513869656874,
        "timestamp": "2025-12-09T07:41:32.845383+00:00",
        "meta_object_name": "TIANMU-1 22",
        "meta_object_id": "2023-208D",
        "meta_epoch": "2025-12-08T22:40:41.804256",
        "meta_mean_motion": 15.27502556,
        "meta_eccentricity": 0.00028102,
        "meta_inclination": 97.4384,
        "meta_ra_of_asc_node": 94.0507,
        "meta_arg_of_pericenter": 305.8626,
        "meta_mean_anomaly": 54.2352,
        "meta_ephemeris_type": 0,
        "meta_classification_type": "U",
        "meta_norad_cat_id": 58663,
        "meta_element_set_no": 999,
        "meta_rev_at_epoch": 10825,
        "meta_bstar": 0.00040405687,
        "meta_mean_motion_dot": 0.00010803,
        "meta_mean_motion_ddot": 0,
        "tle_line1": "1 58663U 23208D   25342.94492829  .00010803  00000+0  40406-3 0  9994",
        "tle_line2": "2 58663  97.4384  94.0507 0002810 305.8626  54.2352 15.27502556108256"
      },
      "geometry": {
        "type": "Point",
        "coordinates": [
          -137.21679968864242,
          -80.54059021413977
        ]
      }
    },
    {
      "type": "Feature",
      "properties": {
        "norad_id": 58700,
        "name": "TIANMU-1 15",
        "group": "weather",
        "lat": 68.14282612385392,
        "lon": 145.72838058068493,
        "alt_km": 486.9973102869444,
        "timestamp": "2025-12-09T07:41:32.845400+00:00",
        "meta_object_name": "TIANMU-1 15",
        "meta_object_id": "2024-004A",
        "meta_epoch": "2025-12-08T23:30:47.801952",
        "meta_mean_motion": 15.24601636,
        "meta_eccentricity": 0.00053548,
        "meta_inclination": 97.463,
        "meta_ra_of_asc_node": 164.4633,
        "meta_arg_of_pericenter": 314.1636,
        "meta_mean_anomaly": 45.916,
        "meta_ephemeris_type": 0,
        "meta_classification_type": "U",
        "meta_norad_cat_id": 58700,
        "meta_element_set_no": 999,
        "meta_rev_at_epoch": 10677,
        "meta_bstar": 0.00036645621,
        "meta_mean_motion_dot": 8.97e-05,
        "meta_mean_motion_ddot": 0,
        "tle_line1": "1 58700U 24004A   25342.97971993  .00008970  00000+0  36646-3 0  9991",
        "tle_line2": "2 58700  97.4630 164.4633 0005354 314.1636  45.9160 15.24601636106779"
      },
      "geometry": {
        "type": "Point",
        "coordinates": [
          145.72838058068493,
          68.14282612385392
        ]
      }
    }
  ]
}